SCD 1                   
1 22490U 93009B   26195.92009991  .00000294  00000+0  29641-4 0  9990
2 22490  24.9705  36.3396 0042078  71.6561  59.2236 14.46128575765135
SCD 2                   
1 25504U 98060A   26195.49751817  .00000275  00000+0  26177-4 0  9994
2 25504  24.9946 263.7395 0016949  52.2644 330.3985 14.45534668464280
SENTINEL-1A             
1 39634U 14016A   26195.93318804  .00000345  00000+0  82785-4 0  9991
2 39634  98.1768 203.0608 0001435  86.9078 273.2286 14.59196101654064
SENTINEL-2A             
1 40697U 15028A   26195.97693498 -.00000162  00000+0 -45264-4 0  9995
2 40697  98.5684 270.4327 0001279  94.3772 265.7557 14.30813440577705
SENTINEL-3A             
1 41335U 16011A   26195.91785759  .00000042  00000+0  35579-4 0  9997
2 41335  98.6238 262.9014 0001363  89.9821 270.1516 14.26739702542013
SCATSAT 1               
1 41790U 16059H   26195.73831606  .00000661  00000+0  93421-4 0  9994
2 41790  98.1179 259.7872 0055184 158.0023 202.3575 14.79586568105661
SENTINEL-2B             
1 42063U 17013A   26195.96974583 -.00000020  00000+0  90914-5 0  9991
2 42063  98.5692 270.3507 0001214  90.7203 269.4119 14.30814635488613
SENTINEL-2C             
1 60989U 24157A   26195.79493548  .00000043  00000+0  33213-4 0  9995
2 60989  98.5685 270.1851 0000956 103.6589 256.4701 14.30815595 96934
SENTINEL-1C             
1 62261U 24235A   26195.97259337  .00000077  00000+0  26146-4 0  9997
2 62261  98.1824 202.8861 0001375  90.8376 269.2982 14.59197747 85462
SENTINEL-1D             
1 66315U 25251A   26195.93846009 -.00000081  00000+0 -74030-5 0  9997
2 66315  98.1841 202.9078 0001324  88.6456 271.4895 14.59197126 36773
